IRIDIUM 116             
1 43072U 17083C   23351.92183245  .00000401  00000+0  13596-3 0  9994
2 43072  86.3963 343.2827 0002086  88.9321 271.2114 14.34220765313413
IRIDIUM 130             
1 43073U 17083D   23351.89013218  .00000043  00000+0  82256-5 0  9996
2 43073  86.3971 343.4825 0002317  87.6608 272.4853 14.34217913313351
IRIDIUM 151             
1 43074U 17083E   23352.07408346  .00000404  00000+0  13720-3 0  9997
2 43074  86.3965 343.2561 0002047  96.7505 263.3924 14.34218919313408
IRIDIUM 134             
1 43075U 17083F   23351.90283446  .00000407  00000+0  13824-3 0  9999
2 43075  86.3966 343.3230 0002337  86.7269 273.4194 14.34218689313340
IRIDIUM 137             
1 43076U 17083G   23352.05505639  .00000404  00000+0  13706-3 0  9994
2 43076  86.3968 343.3343 0001850  87.9629 272.1779 14.34218981313430
IRIDIUM 141             
1 43077U 17083H   23351.90915908  .00000389  00000+0  13175-3 0  9994
2 43077  86.3964 343.2774 0002190  91.1156 269.0291 14.34218812313419
IRIDIUM 153             
1 43078U 17083J   23351.93111499  .00000461  00000+0  15744-3 0  9996
2 43078  86.3961 311.7196 0002438  97.1774 262.9699 14.34220401314526
IRIDIUM 131             
1 43079U 17083K   23351.89648473  .00000400  00000+0  13591-3 0  9990
2 43079  86.3968 343.4076 0002218  93.8692 266.2758 14.34219332313344
